[{"OBJECT_NAME":"SL-16 R/B","OBJECT_ID":"1993-059B","EPOCH":"2026-04-27T19:30:47.463840","MEAN_MOTION":14.17239606,"ECCENTRICITY":0.001576,"INCLINATION":70.9896,"RA_OF_ASC_NODE":267.5321,"ARG_OF_PERICENTER":141.2775,"MEAN_ANOMALY":218.9482,"EPHEMERIS_TYPE":0,"CLASSIFICATION_TYPE":"U","NORAD_CAT_ID":22803,"ELEMENT_SET_NO":999,"REV_AT_EPOCH":68649,"BSTAR":0.00014556,"MEAN_MOTION_DOT":2.46e-6,"MEAN_MOTION_DDOT":0},{"OBJECT_NAME":"ARIANE 40 R/B","OBJECT_ID":"1993-061H","EPOCH":"2026-04-27T18:56:11.728032","MEAN_MOTION":14.32885358,"ECCENTRICITY":0.0011684,"INCLINATION":98.4842,"RA_OF_ASC_NODE":185.6872,"ARG_OF_PERICENTER":134.9545,"MEAN_ANOMALY":225.2588,"EPHEMERIS_TYPE":0,"CLASSIFICATION_TYPE":"U","NORAD_CAT_ID":22830,"ELEMENT_SET_NO":999,"REV_AT_EPOCH":70113,"BSTAR":8.5479e-5,"MEAN_MOTION_DOT":1.91e-6,"MEAN_MOTION_DDOT":0},{"OBJECT_NAME":"COSMOS 2278","OBJECT_ID":"1994-023A","EPOCH":"2026-04-27T19:42:42.491232","MEAN_MOTION":14.14388326,"ECCENTRICITY":0.0010626,"INCLINATION":71.0539,"RA_OF_ASC_NODE":72.3017,"ARG_OF_PERICENTER":305.102,"MEAN_ANOMALY":54.9106,"EPHEMERIS_TYPE":0,"CLASSIFICATION_TYPE":"U","NORAD_CAT_ID":23087,"ELEMENT_SET_NO":999,"REV_AT_EPOCH":65175,"BSTAR":9.4424e-5,"MEAN_MOTION_DOT":1.34e-6,"MEAN_MOTION_DDOT":0},{"OBJECT_NAME":"SL-16 R/B","OBJECT_ID":"1994-023B","EPOCH":"2026-04-27T20:17:43.676160","MEAN_MOTION":14.15015453,"ECCENTRICITY":0.0005059,"INCLINATION":70.9998,"RA_OF_ASC_NODE":327.6562,"ARG_OF_PERICENTER":239.7441,"MEAN_ANOMALY":120.3181,"EPHEMERIS_TYPE":0,"CLASSIFICATION_TYPE":"U","NORAD_CAT_ID":23088,"ELEMENT_SET_NO":999,"REV_AT_EPOCH":65304,"BSTAR":6.4082e-5,"MEAN_MOTION_DOT":7.6e-7,"MEAN_MOTION_DDOT":0},{"OBJECT_NAME":"SL-16 R/B","OBJECT_ID":"1994-074B","EPOCH":"2026-04-27T20:23:20.635296","MEAN_MOTION":14.79458379,"ECCENTRICITY":0.0007943,"INCLINATION":97.7034,"RA_OF_ASC_NODE":146.6592,"ARG_OF_PERICENTER":67.0978,"MEAN_ANOMALY":105.5984,"EPHEMERIS_TYPE":0,"CLASSIFICATION_TYPE":"U","NORAD_CAT_ID":23343,"ELEMENT_SET_NO":999,"REV_AT_EPOCH":69451,"BSTAR":6.8895e-5,"MEAN_MOTION_DOT":4.65e-6,"MEAN_MOTION_DDOT":0},{"OBJECT_NAME":"SL-16 R/B","OBJECT_ID":"1994-077B","EPOCH":"2026-04-27T19:23:38.124960","MEAN_MOTION":14.15572816,"ECCENTRICITY":2.93e-5,"INCLINATION":70.9832,"RA_OF_ASC_NODE":249.1489,"ARG_OF_PERICENTER":88.9328,"MEAN_ANOMALY":271.1828,"EPHEMERIS_TYPE":0,"CLASSIFICATION_TYPE":"U","NORAD_CAT_ID":23405,"ELEMENT_SET_NO":999,"REV_AT_EPOCH":62318,"BSTAR":1.262e-5,"MEAN_MOTION_DOT":-2.3e-7,"MEAN_MOTION_DDOT":0},{"OBJECT_NAME":"ARIANE 40+ R/B","OBJECT_ID":"1995-021B","EPOCH":"2026-04-27T19:41:13.696224","MEAN_MOTION":14.39804707,"ECCENTRICITY":0.0006584,"INCLINATION":98.4428,"RA_OF_ASC_NODE":188.6181,"ARG_OF_PERICENTER":5.9172,"MEAN_ANOMALY":105.3039,"EPHEMERIS_TYPE":0,"CLASSIFICATION_TYPE":"U","NORAD_CAT_ID":23561,"ELEMENT_SET_NO":999,"REV_AT_EPOCH":62631,"BSTAR":9.9577e-5,"MEAN_MOTION_DOT":2.69e-6,"MEAN_MOTION_DDOT":0},{"OBJECT_NAME":"SL-16 R/B","OBJECT_ID":"1995-058B","EPOCH":"2026-04-27T19:37:07.343040","MEAN_MOTION":14.15504518,"ECCENTRICITY":0.0011031,"INCLINATION":71.0208,"RA_OF_ASC_NODE":77.11,"ARG_OF_PERICENTER":35.3965,"MEAN_ANOMALY":324.7888,"EPHEMERIS_TYPE":0,"CLASSIFICATION_TYPE":"U","NORAD_CAT_ID":23705,"ELEMENT_SET_NO":999,"REV_AT_EPOCH":57480,"BSTAR":-8.2577e-5,"MEAN_MOTION_DOT":-2.09e-6,"MEAN_MOTION_DDOT":0},{"OBJECT_NAME":"SL-16 R/B","OBJECT_ID":"1996-051B","EPOCH":"2026-04-27T14:34:45.369984","MEAN_MOTION":14.12428347,"ECCENTRICITY":0.0012502,"INCLINATION":70.7607,"RA_OF_ASC_NODE":71.6972,"ARG_OF_PERICENTER":62.9691,"MEAN_ANOMALY":297.2703,"EPHEMERIS_TYPE":0,"CLASSIFICATION_TYPE":"U","NORAD_CAT_ID":24298,"ELEMENT_SET_NO":999,"REV_AT_EPOCH":52855,"BSTAR":7.5855e-5,"MEAN_MOTION_DOT":9.1e-7,"MEAN_MOTION_DDOT":0},{"OBJECT_NAME":"ORBVIEW 2 (SEASTAR)","OBJECT_ID":"1997-037A","EPOCH":"2026-04-27T16:43:10.997184","MEAN_MOTION":14.35526309,"ECCENTRICITY":0.000108,"INCLINATION":98.8644,"RA_OF_ASC_NODE":283.3277,"ARG_OF_PERICENTER":277.5631,"MEAN_ANOMALY":82.5431,"EPHEMERIS_TYPE":0,"CLASSIFICATION_TYPE":"U","NORAD_CAT_ID":24883,"ELEMENT_SET_NO":999,"REV_AT_EPOCH":51550,"BSTAR":0.00010365,"MEAN_MOTION_DOT":2.51e-6,"MEAN_MOTION_DDOT":0},{"OBJECT_NAME":"SL-16 R/B","OBJECT_ID":"1998-043G","EPOCH":"2026-04-27T20:17:53.765088","MEAN_MOTION":14.26060217,"ECCENTRICITY":0.0008979,"INCLINATION":98.8328,"RA_OF_ASC_NODE":71.5829,"ARG_OF_PERICENTER":228.1127,"MEAN_ANOMALY":131.9287,"EPHEMERIS_TYPE":0,"CLASSIFICATION_TYPE":"U","NORAD_CAT_ID":25400,"ELEMENT_SET_NO":999,"REV_AT_EPOCH":44599,"BSTAR":3.7401e-5,"MEAN_MOTION_DOT":4.4e-7,"MEAN_MOTION_DDOT":0},{"OBJECT_NAME":"SL-16 R/B","OBJECT_ID":"1998-045B","EPOCH":"2026-04-27T20:59:50.087328","MEAN_MOTION":14.16196515,"ECCENTRICITY":0.0009312,"INCLINATION":71.0101,"RA_OF_ASC_NODE":78.1363,"ARG_OF_PERICENTER":300.8575,"MEAN_ANOMALY":59.1631,"EPHEMERIS_TYPE":0,"CLASSIFICATION_TYPE":"U","NORAD_CAT_ID":25407,"ELEMENT_SET_NO":999,"REV_AT_EPOCH":43406,"BSTAR":-3.5771e-5,"MEAN_MOTION_DOT":-1.19e-6,"MEAN_MOTION_DDOT":0},{"OBJECT_NAME":"ISS (ZARYA)","OBJECT_ID":"1998-067A","EPOCH":"2026-04-27T11:46:02.904096","MEAN_MOTION":15.48989086,"ECCENTRICITY":0.0007041,"INCLINATION":51.632,"RA_OF_ASC_NODE":191.0311,"ARG_OF_PERICENTER":356.8192,"MEAN_ANOMALY":3.275,"EPHEMERIS_TYPE":0,"CLASSIFICATION_TYPE":"U","NORAD_CAT_ID":25544,"ELEMENT_SET_NO":999,"REV_AT_EPOCH":56389,"BSTAR":0.00017512,"MEAN_MOTION_DOT":9.21e-5,"MEAN_MOTION_DDOT":0},{"OBJECT_NAME":"CZ-4B R/B","OBJECT_ID":"1999-025C","EPOCH":"2026-04-27T20:37:39.434880","MEAN_MOTION":14.1827446,"ECCENTRICITY":0.0036729,"INCLINATION":98.6532,"RA_OF_ASC_NODE":160.9533,"ARG_OF_PERICENTER":201.8113,"MEAN_ANOMALY":331.3813,"EPHEMERIS_TYPE":0,"CLASSIFICATION_TYPE":"U","NORAD_CAT_ID":25732,"ELEMENT_SET_NO":999,"REV_AT_EPOCH":39513,"BSTAR":4.2268e-5,"MEAN_MOTION_DOT":4.5e-7,"MEAN_MOTION_DDOT":0},{"OBJECT_NAME":"OKEAN-O","OBJECT_ID":"1999-039A","EPOCH":"2026-04-27T17:21:51.181920","MEAN_MOTION":14.80405464,"ECCENTRICITY":0.0001567,"INCLINATION":97.9354,"RA_OF_ASC_NODE":177.0925,"ARG_OF_PERICENTER":113.4803,"MEAN_ANOMALY":246.6574,"EPHEMERIS_TYPE":0,"CLASSIFICATION_TYPE":"U","NORAD_CAT_ID":25860,"ELEMENT_SET_NO":999,"REV_AT_EPOCH":44164,"BSTAR":9.0729e-5,"MEAN_MOTION_DOT":6.41e-6,"MEAN_MOTION_DDOT":0},{"OBJECT_NAME":"SL-16 R/B","OBJECT_ID":"1999-039B","EPOCH":"2026-04-27T17:23:53.984832","MEAN_MOTION":14.81792544,"ECCENTRICITY":0.0016203,"INCLINATION":97.9876,"RA_OF_ASC_NODE":176.7235,"ARG_OF_PERICENTER":97.9342,"MEAN_ANOMALY":262.3711,"EPHEMERIS_TYPE":0,"CLASSIFICATION_TYPE":"U","NORAD_CAT_ID":25861,"ELEMENT_SET_NO":999,"REV_AT_EPOCH":44412,"BSTAR":7.4474e-5,"MEAN_MOTION_DOT":5.35e-6,"MEAN_MOTION_DDOT":0},{"OBJECT_NAME":"DELTA 2 R/B","OBJECT_ID":"1999-041E","EPOCH":"2026-04-27T06:50:38.325984","MEAN_MOTION":14.11932095,"ECCENTRICITY":0.0502443,"INCLINATION":51.7599,"RA_OF_ASC_NODE":107.1411,"ARG_OF_PERICENTER":131.7315,"MEAN_ANOMALY":232.773,"EPHEMERIS_TYPE":0,"CLASSIFICATION_TYPE":"U","NORAD_CAT_ID":25876,"ELEMENT_SET_NO":999,"REV_AT_EPOCH":36989,"BSTAR":0.00015413,"MEAN_MOTION_DOT":7.14e-6,"MEAN_MOTION_DDOT":0}]
