SL-16 R/B               
1 22803U 93059B   26117.81304935  .00000246  00000+0  14556-3 0  9996
2 22803  70.9896 267.5321 0015760 141.2775 218.9482 14.17239606686494
ARIANE 40 R/B           
1 22830U 93061H   26117.78902463  .00000191  00000+0  85479-4 0  9997
2 22830  98.4842 185.6872 0011684 134.9545 225.2588 14.32885358701131
COSMOS 2278             
1 23087U 94023A   26117.82132513  .00000134  00000+0  94424-4 0  9994
2 23087  71.0539  72.3017 0010626 305.1020  54.9106 14.14388326651752
SL-16 R/B               
1 23088U 94023B   26117.84564440  .00000076  00000+0  64082-4 0  9997
2 23088  70.9998 327.6562 0005059 239.7441 120.3181 14.15015453653048
SL-16 R/B               
1 23343U 94074B   26117.84954439  .00000465  00000+0  68895-4 0  9996
2 23343  97.7034 146.6592 0007943  67.0978 105.5984 14.79458379694514
SL-16 R/B               
1 23405U 94077B   26117.80808015 -.00000023  00000+0  12620-4 0  9998
2 23405  70.9832 249.1489 0000293  88.9328 271.1828 14.15572816623183
ARIANE 40+ R/B          
1 23561U 95021B   26117.82029741  .00000269  00000+0  99577-4 0  9991
2 23561  98.4428 188.6181 0006584   5.9172 105.3039 14.39804707626316
SL-16 R/B               
1 23705U 95058B   26117.81744610 -.00000209  00000+0 -82577-4 0  9997
2 23705  71.0208  77.1100 0011031  35.3965 324.7888 14.15504518574808
SL-16 R/B               
1 24298U 96051B   26117.60746956  .00000091  00000+0  75855-4 0  9999
2 24298  70.7607  71.6972 0012502  62.9691 297.2703 14.12428347528550
ORBVIEW 2 (SEASTAR)     
1 24883U 97037A   26117.69665506  .00000251  00000+0  10365-3 0  9996
2 24883  98.8644 283.3277 0001080 277.5631  82.5431 14.35526309515505
SL-16 R/B               
1 25400U 98043G   26117.84576117  .00000044  00000+0  37401-4 0  9997
2 25400  98.8328  71.5829 0008979 228.1127 131.9287 14.26060217445990
SL-16 R/B               
1 25407U 98045B   26117.87488527 -.00000119  00000+0 -35771-4 0  9999
2 25407  71.0101  78.1363 0009312 300.8575  59.1631 14.16196515434062
ISS (ZARYA)             
1 25544U 98067A   26117.49031139  .00009210  00000+0  17512-3 0  9997
2 25544  51.6320 191.0311 0007041 356.8192   3.2750 15.48989086563897
CZ-4B R/B               
1 25732U 99025C   26117.85948420  .00000045  00000+0  42268-4 0  9995
2 25732  98.6532 160.9533 0036729 201.8113 331.3813 14.18274460395134
OKEAN-O                 
1 25860U 99039A   26117.72350905  .00000641  00000+0  90729-4 0  9990
2 25860  97.9354 177.0925 0001567 113.4803 246.6574 14.80405464441649
SL-16 R/B               
1 25861U 99039B   26117.72493038  .00000535  00000+0  74474-4 0  9997
2 25861  97.9876 176.7235 0016203  97.9342 262.3711 14.81792544444129
DELTA 2 R/B             
1 25876U 99041E   26117.28516581  .00000714  00000+0  15413-3 0  9992
2 25876  51.7599 107.1411 0502443 131.7315 232.7730 14.11932095369894
